RADUGA 6                
1 11708U 80016A   26095.59263260 -.00000003  00000+0  00000+0 0  9999
2 11708   5.8945 287.3284 0002486 343.9473 202.9823  1.00201688121430
RADUGA 7                
1 12003U 80081A   26095.15735618 -.00000281  00000+0  00000+0 0  9991
2 12003   6.1262 289.8743 0011291 321.1630 312.4377  1.00331486122576
SBS 1                   
1 12065U 80091A   26094.95363141 -.00000284  00000+0  00000+0 0  9998
2 12065  10.1206 318.2705 0004641 178.8970   4.1337  0.99827360 45749
EKRAN 6                 
1 12120U 80104A   26095.54150501  .00000093  00000+0  00000+0 0  9992
2 12120   6.4188 291.3123 0007217  68.1358  81.9781  1.00257631126686
ESIAFI 1 (COMSTAR 4)    
1 12309U 81018A   26095.13279579 -.00000057  00000+0  00000+0 0  9999
2 12309   8.8421 311.6854 0004160  64.1601 295.7476  1.00265381166714
SL-12 R/B(2)            
1 12447U 80081F   26095.42544436 -.00000332  00000+0  00000+0 0  9996
2 12447   6.3481 290.9338 0005826  47.5332 146.3024  0.99974394163656
GOES 5                  
1 12472U 81049A   26095.15547249 -.00000154  00000+0  00000+0 0  9996
2 12472   9.4900 316.1477 0004099 343.1093 214.2804  1.00206510122117
APPLE                   
1 12545U 81057B   26095.51437824 -.00000188  00000+0  00000+0 0  9990
2 12545   7.2005 297.4079 0022676 226.7125 130.4111  1.00029163121657
EKRAN 7                 
1 12564U 81061A   26095.56642509 -.00000304  00000+0  00000+0 0  9999
2 12564   6.7008 293.6884 0006112  52.0833 151.3297  1.00257879128785
RADUGA 9                
1 12618U 81069A   26095.56154220 -.00000229  00000+0  00000+0 0  9991
2 12618   6.7628 294.1668 0000671 117.2212  75.5851  1.00195728 46616
SBS 2                   
1 12855U 81096A   26095.55285839 -.00000350  00000+0  00000+0 0  9999
2 12855  10.3777 321.9226 0004250 262.4527 278.5505  1.00125644117882
RADUGA 10               
1 12897U 81102A   26095.54462502 -.00000037  00000+0  00000+0 0  9998
2 12897   6.8785 295.4583 0002693 265.7188 257.2012  1.00290945116610
SATCOM 3R               
1 12967U 81114A   26095.22480610 -.00000084  00000+0  00000+0 0  9996
2 12967  12.1745 332.4027 0005577 335.0492 222.2637  1.00093529127337
EKRAN 2 DEB             
1 12996U 77092J   26095.24438988 -.00000102  00000+0  00000+0 0  9992
2 12996   4.4933 275.8567 0012935 302.7006  55.5232  1.00056564 83774
WESTAR 4                
1 13069U 82014A   26095.17475478 -.00000161  00000+0  00000+0 0  9996
2 13069  12.7131 335.4719 0004972 317.0262 239.4034  0.99766617 45714
INSAT-1A                
1 13129U 82031A   26095.54973838 -.00000286  00000+0  00000+0 0  9994
2 13129   7.2977 298.9889 0015811  72.7020 114.1820  1.00356722165709
COSMOS 1366             
1 13177U 82044A   26095.59835950 -.00000128  00000+0  00000+0 0  9993
2 13177   8.4662 297.9727 0008326 114.2595  74.8467  1.00287841132885
