[{"OBJECT_NAME":"RADUGA 6","OBJECT_ID":"1980-016A","EPOCH":"2026-04-05T14:13:23.456640","MEAN_MOTION":1.00201688,"ECCENTRICITY":0.00024865,"INCLINATION":5.8945,"RA_OF_ASC_NODE":287.3284,"ARG_OF_PERICENTER":343.9473,"MEAN_ANOMALY":202.9823,"EPHEMERIS_TYPE":0,"CLASSIFICATION_TYPE":"U","NORAD_CAT_ID":11708,"ELEMENT_SET_NO":999,"REV_AT_EPOCH":12143,"BSTAR":0,"MEAN_MOTION_DOT":-3.0e-8,"MEAN_MOTION_DDOT":0},{"OBJECT_NAME":"RADUGA 7","OBJECT_ID":"1980-081A","EPOCH":"2026-04-05T03:46:35.573952","MEAN_MOTION":1.00331486,"ECCENTRICITY":0.00112918,"INCLINATION":6.1262,"RA_OF_ASC_NODE":289.8743,"ARG_OF_PERICENTER":321.163,"MEAN_ANOMALY":312.4377,"EPHEMERIS_TYPE":0,"CLASSIFICATION_TYPE":"U","NORAD_CAT_ID":12003,"ELEMENT_SET_NO":999,"REV_AT_EPOCH":12257,"BSTAR":0,"MEAN_MOTION_DOT":-2.81e-6,"MEAN_MOTION_DDOT":0},{"OBJECT_NAME":"SBS 1","OBJECT_ID":"1980-091A","EPOCH":"2026-04-04T22:53:13.753824","MEAN_MOTION":0.9982736,"ECCENTRICITY":0.00046414,"INCLINATION":10.1206,"RA_OF_ASC_NODE":318.2705,"ARG_OF_PERICENTER":178.897,"MEAN_ANOMALY":4.1337,"EPHEMERIS_TYPE":0,"CLASSIFICATION_TYPE":"U","NORAD_CAT_ID":12065,"ELEMENT_SET_NO":999,"REV_AT_EPOCH":4574,"BSTAR":0,"MEAN_MOTION_DOT":-2.84e-6,"MEAN_MOTION_DDOT":0},{"OBJECT_NAME":"EKRAN 6","OBJECT_ID":"1980-104A","EPOCH":"2026-04-05T12:59:46.032864","MEAN_MOTION":1.00257631,"ECCENTRICITY":0.00072179,"INCLINATION":6.4188,"RA_OF_ASC_NODE":291.3123,"ARG_OF_PERICENTER":68.1358,"MEAN_ANOMALY":81.9781,"EPHEMERIS_TYPE":0,"CLASSIFICATION_TYPE":"U","NORAD_CAT_ID":12120,"ELEMENT_SET_NO":999,"REV_AT_EPOCH":12668,"BSTAR":0,"MEAN_MOTION_DOT":9.3e-7,"MEAN_MOTION_DDOT":0},{"OBJECT_NAME":"ESIAFI 1 (COMSTAR 4)","OBJECT_ID":"1981-018A","EPOCH":"2026-04-05T03:11:13.556256","MEAN_MOTION":1.00265381,"ECCENTRICITY":0.000416,"INCLINATION":8.8421,"RA_OF_ASC_NODE":311.6854,"ARG_OF_PERICENTER":64.1601,"MEAN_ANOMALY":295.7476,"EPHEMERIS_TYPE":0,"CLASSIFICATION_TYPE":"U","NORAD_CAT_ID":12309,"ELEMENT_SET_NO":999,"REV_AT_EPOCH":16671,"BSTAR":0,"MEAN_MOTION_DOT":-5.7e-7,"MEAN_MOTION_DDOT":0},{"OBJECT_NAME":"SL-12 R/B(2)","OBJECT_ID":"1980-081F","EPOCH":"2026-04-05T10:12:38.392704","MEAN_MOTION":0.99974394,"ECCENTRICITY":0.00058265,"INCLINATION":6.3481,"RA_OF_ASC_NODE":290.9338,"ARG_OF_PERICENTER":47.5332,"MEAN_ANOMALY":146.3024,"EPHEMERIS_TYPE":0,"CLASSIFICATION_TYPE":"U","NORAD_CAT_ID":12447,"ELEMENT_SET_NO":999,"REV_AT_EPOCH":16365,"BSTAR":0,"MEAN_MOTION_DOT":-3.32e-6,"MEAN_MOTION_DDOT":0},{"OBJECT_NAME":"GOES 5","OBJECT_ID":"1981-049A","EPOCH":"2026-04-05T03:43:52.823136","MEAN_MOTION":1.0020651,"ECCENTRICITY":0.00040991,"INCLINATION":9.49,"RA_OF_ASC_NODE":316.1477,"ARG_OF_PERICENTER":343.1093,"MEAN_ANOMALY":214.2804,"EPHEMERIS_TYPE":0,"CLASSIFICATION_TYPE":"U","NORAD_CAT_ID":12472,"ELEMENT_SET_NO":999,"REV_AT_EPOCH":12211,"BSTAR":0,"MEAN_MOTION_DOT":-1.54e-6,"MEAN_MOTION_DDOT":0},{"OBJECT_NAME":"APPLE","OBJECT_ID":"1981-057B","EPOCH":"2026-04-05T12:20:42.279936","MEAN_MOTION":1.00029163,"ECCENTRICITY":0.00226767,"INCLINATION":7.2005,"RA_OF_ASC_NODE":297.4079,"ARG_OF_PERICENTER":226.7125,"MEAN_ANOMALY":130.4111,"EPHEMERIS_TYPE":0,"CLASSIFICATION_TYPE":"U","NORAD_CAT_ID":12545,"ELEMENT_SET_NO":999,"REV_AT_EPOCH":12165,"BSTAR":0,"MEAN_MOTION_DOT":-1.88e-6,"MEAN_MOTION_DDOT":0},{"OBJECT_NAME":"EKRAN 7","OBJECT_ID":"1981-061A","EPOCH":"2026-04-05T13:35:39.127776","MEAN_MOTION":1.00257879,"ECCENTRICITY":0.00061128,"INCLINATION":6.7008,"RA_OF_ASC_NODE":293.6884,"ARG_OF_PERICENTER":52.0833,"MEAN_ANOMALY":151.3297,"EPHEMERIS_TYPE":0,"CLASSIFICATION_TYPE":"U","NORAD_CAT_ID":12564,"ELEMENT_SET_NO":999,"REV_AT_EPOCH":12878,"BSTAR":0,"MEAN_MOTION_DOT":-3.04e-6,"MEAN_MOTION_DDOT":0},{"OBJECT_NAME":"RADUGA 9","OBJECT_ID":"1981-069A","EPOCH":"2026-04-05T13:28:37.246080","MEAN_MOTION":1.00195728,"ECCENTRICITY":6.711e-5,"INCLINATION":6.7628,"RA_OF_ASC_NODE":294.1668,"ARG_OF_PERICENTER":117.2212,"MEAN_ANOMALY":75.5851,"EPHEMERIS_TYPE":0,"CLASSIFICATION_TYPE":"U","NORAD_CAT_ID":12618,"ELEMENT_SET_NO":999,"REV_AT_EPOCH":4661,"BSTAR":0,"MEAN_MOTION_DOT":-2.29e-6,"MEAN_MOTION_DDOT":0},{"OBJECT_NAME":"SBS 2","OBJECT_ID":"1981-096A","EPOCH":"2026-04-05T13:16:06.964896","MEAN_MOTION":1.00125644,"ECCENTRICITY":0.00042507,"INCLINATION":10.3777,"RA_OF_ASC_NODE":321.9226,"ARG_OF_PERICENTER":262.4527,"MEAN_ANOMALY":278.5505,"EPHEMERIS_TYPE":0,"CLASSIFICATION_TYPE":"U","NORAD_CAT_ID":12855,"ELEMENT_SET_NO":999,"REV_AT_EPOCH":11788,"BSTAR":0,"MEAN_MOTION_DOT":-3.5e-6,"MEAN_MOTION_DDOT":0},{"OBJECT_NAME":"RADUGA 10","OBJECT_ID":"1981-102A","EPOCH":"2026-04-05T13:04:15.601728","MEAN_MOTION":1.00290945,"ECCENTRICITY":0.00026938,"INCLINATION":6.8785,"RA_OF_ASC_NODE":295.4583,"ARG_OF_PERICENTER":265.7188,"MEAN_ANOMALY":257.2012,"EPHEMERIS_TYPE":0,"CLASSIFICATION_TYPE":"U","NORAD_CAT_ID":12897,"ELEMENT_SET_NO":999,"REV_AT_EPOCH":11661,"BSTAR":0,"MEAN_MOTION_DOT":-3.7e-7,"MEAN_MOTION_DDOT":0},{"OBJECT_NAME":"SATCOM 3R","OBJECT_ID":"1981-114A","EPOCH":"2026-04-05T05:23:43.247040","MEAN_MOTION":1.00093529,"ECCENTRICITY":0.0005577,"INCLINATION":12.1745,"RA_OF_ASC_NODE":332.4027,"ARG_OF_PERICENTER":335.0492,"MEAN_ANOMALY":222.2637,"EPHEMERIS_TYPE":0,"CLASSIFICATION_TYPE":"U","NORAD_CAT_ID":12967,"ELEMENT_SET_NO":999,"REV_AT_EPOCH":12733,"BSTAR":0,"MEAN_MOTION_DOT":-8.4e-7,"MEAN_MOTION_DDOT":0},{"OBJECT_NAME":"EKRAN 2 DEB","OBJECT_ID":"1977-092J","EPOCH":"2026-04-05T05:51:55.285632","MEAN_MOTION":1.00056564,"ECCENTRICITY":0.0012935,"INCLINATION":4.4933,"RA_OF_ASC_NODE":275.8567,"ARG_OF_PERICENTER":302.7006,"MEAN_ANOMALY":55.5232,"EPHEMERIS_TYPE":0,"CLASSIFICATION_TYPE":"U","NORAD_CAT_ID":12996,"ELEMENT_SET_NO":999,"REV_AT_EPOCH":8377,"BSTAR":0,"MEAN_MOTION_DOT":-1.02e-6,"MEAN_MOTION_DDOT":0},{"OBJECT_NAME":"WESTAR 4","OBJECT_ID":"1982-014A","EPOCH":"2026-04-05T04:11:38.812992","MEAN_MOTION":0.99766617,"ECCENTRICITY":0.0004972,"INCLINATION":12.7131,"RA_OF_ASC_NODE":335.4719,"ARG_OF_PERICENTER":317.0262,"MEAN_ANOMALY":239.4034,"EPHEMERIS_TYPE":0,"CLASSIFICATION_TYPE":"U","NORAD_CAT_ID":13069,"ELEMENT_SET_NO":999,"REV_AT_EPOCH":4571,"BSTAR":0,"MEAN_MOTION_DOT":-1.61e-6,"MEAN_MOTION_DDOT":0},{"OBJECT_NAME":"INSAT-1A","OBJECT_ID":"1982-031A","EPOCH":"2026-04-05T13:11:37.396032","MEAN_MOTION":1.00356722,"ECCENTRICITY":0.00158119,"INCLINATION":7.2977,"RA_OF_ASC_NODE":298.9889,"ARG_OF_PERICENTER":72.702,"MEAN_ANOMALY":114.182,"EPHEMERIS_TYPE":0,"CLASSIFICATION_TYPE":"U","NORAD_CAT_ID":13129,"ELEMENT_SET_NO":999,"REV_AT_EPOCH":16570,"BSTAR":0,"MEAN_MOTION_DOT":-2.86e-6,"MEAN_MOTION_DDOT":0},{"OBJECT_NAME":"COSMOS 1366","OBJECT_ID":"1982-044A","EPOCH":"2026-04-05T14:21:38.260800","MEAN_MOTION":1.00287841,"ECCENTRICITY":0.00083263,"INCLINATION":8.4662,"RA_OF_ASC_NODE":297.9727,"ARG_OF_PERICENTER":114.2595,"MEAN_ANOMALY":74.8467,"EPHEMERIS_TYPE":0,"CLASSIFICATION_TYPE":"U","NORAD_CAT_ID":13177,"ELEMENT_SET_NO":999,"REV_AT_EPOCH":13288,"BSTAR":0,"MEAN_MOTION_DOT":-1.28e-6,"MEAN_MOTION_DDOT":0}]
